[{"OBJECT_NAME":"ONEWEB-0665","OBJECT_ID":"2023-029AF","EPOCH":"2026-03-09T16:08:17.965824","MEAN_MOTION":13.14502253,"ECCENTRICITY":0.00015725,"INCLINATION":87.8981,"RA_OF_ASC_NODE":309.5889,"ARG_OF_PERICENTER":92.8062,"MEAN_ANOMALY":267.3248,"EPHEMERIS_TYPE":0,"CLASSIFICATION_TYPE":"U","NORAD_CAT_ID":55825,"ELEMENT_SET_NO":999,"REV_AT_EPOCH":14633,"BSTAR":4.7277964e-5,"MEAN_MOTION_DOT":3.0e-7,"MEAN_MOTION_DDOT":0},{"OBJECT_NAME":"OPS 4682 DEB","OBJECT_ID":"1965-027C","EPOCH":"2026-03-09T22:01:35.411808","MEAN_MOTION":13.22363751,"ECCENTRICITY":0.00362446,"INCLINATION":90.2606,"RA_OF_ASC_NODE":25.0203,"ARG_OF_PERICENTER":89.1257,"MEAN_ANOMALY":271.4031,"EPHEMERIS_TYPE":0,"CLASSIFICATION_TYPE":"U","NORAD_CAT_ID":1316,"ELEMENT_SET_NO":999,"REV_AT_EPOCH":90588,"BSTAR":0.0024977229,"MEAN_MOTION_DOT":1.052e-5,"MEAN_MOTION_DDOT":0}]
